#aV2014 12 10  0  0  0.00000000     288 DD+AD WGS84 FIT  NGA
## 1822 259200.00000000   300.00000000 57001 0.0000000000000
+   32     1  2  3  4  5  6  7  8  9 10 11 12 13 14 15 16 17
+         18 19 20 21 22 23 24 25 26 27 28 29 30 31 32  0  0
+          0  0  0  0  0  0  0  0  0  0  0  0  0  0  0  0  0
+          0  0  0  0  0  0  0  0  0  0  0  0  0  0  0  0  0
+          0  0  0  0  0  0  0  0  0  0  0  0  0  0  0  0  0
++         2  2  2  2  2  2  2  2  2  2  2  2  2  2  2  2  2
++         2  2  2  2  2  2  2  2  2  2  2  2  2  2  2  0  0
++         0  0  0  0  0  0  0  0  0  0  0  0  0  0  0  0  0
++         0  0  0  0  0  0  0  0  0  0  0  0  0  0  0  0  0
++         0  0  0  0  0  0  0  0  0  0  0  0  0  0  0  0  0
%c cc cc ccc ccc cccc cccc cccc cccc ccccc ccccc ccccc ccccc
%c cc cc ccc ccc cccc cccc cccc cccc ccccc ccccc ccccc ccccc
%f  0.0000000  0.000000000  0.00000000000  0.000000000000000
%f  0.0000000  0.000000000  0.00000000000  0.000000000000000
%i    0    0    0    0      0      0      0      0         0
%i    0    0    0    0      0      0      0      0         0
/*      NGA, ST. LOUIS,MO.                                  
/*   EPHEMERIS COMPUTED FROM  1 DAYS OF DATA                
/*   EPOCHA SMOOTHER                                       
/* CCCCCCCCCCCCCCCCCCCCCCCCCCCCCCCCCCCCCCCCCCCCCCCCCCCCCCCCC
*  2014 12 10 19 20  0.00000000
P  1 -12584.105954  22583.104395  -5756.285073    -11.279237                    
V  1  -6716.804536   3981.204790  30737.041586      0.003635                    
P  2  19760.446399  -8733.738008 -14802.167013    535.079361                    
V  2  -9216.514322  17558.021446 -22656.439160      0.022241                    
P  3  -9656.416464  13413.888660 -20797.171613     64.251356                    
V  3 -26064.055077  -4350.447158   9247.235451      0.308543                    
P  4 -18039.748772  18752.078280   4256.511147     -4.174091                    
V  4    561.101815  -6899.283108  30803.065389     -0.004048                    
P  5  24987.873135  -3060.451589   8694.127813   -307.708410                    
V  5  10617.751143   4275.345780 -28659.582104      0.047168                    
P  6  14975.464673   5005.111996 -21368.899759     24.608388                    
V  6 -16091.152032  21814.869899  -6187.653659      0.073873                    
P  7  -2536.010944  20732.579684  16287.885366    420.958439                    
V  7 -14446.205329  14827.841750 -21598.055856      0.036027                    
P  8 -20060.059347  16313.702994  -4026.847771     16.686905                    
V  8   2272.801275  -5450.348222 -32391.766090      0.002102                    
P  9   6750.444825  25223.366539  -4839.381632    -24.434095                    
V  9  -4943.487545  -4606.478721 -30929.921012     -0.090588                    
P 10  23572.146294   9739.891274  -8531.108218   -153.581871                    
V 10 -10523.353311   1225.000285 -28527.022334     -0.017563                    
P 11 -11364.114509  23479.143972   4024.719219   -542.619591                    
V 11  -2930.093227  -7130.612958  29666.414402     -0.027276                    
P 12  12840.676896 -11284.617745 -20343.206901    252.594696                    
V 12  25087.179679   5404.706126  13089.714686      0.028534                    
P 13  15990.769275   8198.180395  19379.669482    -68.384631                    
V 13   5713.960444  24269.335182 -15028.660527     -0.035619                    
P 14 -14561.210465 -18812.422608 -11731.146176    107.639264                    
V 14  -2649.106033 -15107.978609  26842.260695     -0.035791                    
P 15   6676.585597 -17827.278456  18322.091397   -219.557434                    
V 15  11729.068729  20595.723256  16019.170811     -0.022061                    
P 16 -25147.546823   1000.847805   8993.250087   -174.235909                    
V 16 -10849.412134  -3671.706780 -29388.856259      0.029908                    
P 17  14482.383049  19827.181358 -10137.660686   -143.045216                    
V 17   2471.961327  13127.234838  28206.770365     -0.024172                    
P 18 -11510.080497 -15613.598567  18739.978211    364.208067                    
V 18  22895.697642   1103.112593  15054.817034      0.026437                    
P 19 -11205.983948  11959.423008  20630.590960   -491.870321                    
V 19  -8756.252895 -25218.527669  10221.795589     -0.016120                    
P 20  -6447.634995  15322.275341 -20908.480612    265.910843                    
V 20 -26124.136877  -2562.677918   6309.279586      0.041020                    
P 21  -4409.413830 -18096.944040  19454.381386   -399.503337                    
V 21  15537.177023 -17771.837804 -13892.073439     -0.020714                    
P 22 -22566.494665 -10318.975528   9914.667095    295.472538                    
V 22  12624.129380  -1850.618352  27232.995240      0.040104                    
P 23  -1766.156688  22271.512600 -13901.358858    -73.515768                    
V 23  -9269.415114 -15747.211152 -24248.576250     -0.027280                    
P 24  14483.448190 -22055.792123  -2384.253020    -39.863930                    
V 24   4284.824620   -554.091813  31518.121875     -0.005976                    
P 25  -1835.155737 -15119.891869 -21851.415301     10.022284                    
V 25  27280.249814   3416.555555  -4531.234960     -0.020291                    
P 26  14159.718457  -3712.526212  21505.996517   -152.447812                    
V 26   8300.320587  27650.933416   -404.636924     -0.131923                    
P 27 -15557.476163   1246.394512  21488.402070     36.103758                    
V 27  -9999.031594 -25391.816376  -5685.915664      0.027452                    
P 28  18576.830165  13373.189968  14192.795910    404.356202                    
V 28 -16783.189390  -2169.605901  25013.988857      0.026404                    
P 29  -3753.283041 -25347.512785  -7031.632478    578.710339                    
V 29   5133.429825   7686.935066 -30286.472765      0.023984                    
P 30   7380.767657  14129.369777  21238.744391    -84.408589                    
V 30 -18559.928990  19598.610798  -6635.964888     -0.013657                    
P 31 -16261.916699  -2356.825338 -20789.637593    327.623602                    
V 31  16472.539678 -20917.246715 -10119.495995     -0.006246                    
P 32 -20354.700927   6757.585637 -15295.830251   -273.952790                    
V 32 -18654.162019  -6853.796965  22330.261377      0.088596                    
EOF
